{
  "type": "FeatureCollection",
  "features": [
    {
      "type": "Feature",
      "properties": {
        "aoi_id": "AOI_01",
        "bbox": [
          5.8751319086517615,
          49.76641171561878,
          6.182713304100408,
          50.111618876545485
        ]
      },
      "geometry": {
        "type": "Polygon",
        "coordinates": [
          [
            [
              6.182713304100408,
              49.776149905375966
            ],
            [
              6.155900033430178,
              50.111618876545485
            ],
            [
              5.8751319086517615,
              50.101802033209125
            ],
            [
              5.9038935087373146,
              49.76641171561878
            ],
            [
              6.182713304100408,
              49.776149905375966
            ]
          ]
        ]
      }
    },
    {
      "type": "Feature",
      "properties": {
        "aoi_id": "AOI_02",
        "bbox": [
          4.944072925088664,
          50.11544845138636,
          5.231703981224475,
          50.359532421924
        ]
      },
      "geometry": {
        "type": "Polygon",
        "coordinates": [
          [
            [
              5.231703981224475,
              50.126754027166506
            ],
            [
              5.208249580360043,
              50.359532421924
            ],
            [
              4.944072925088664,
              50.3481629805147
            ],
            [
              4.96881027786521,
              50.11544845138636
            ],
            [
              5.231703981224475,
              50.126754027166506
            ]
          ]
        ]
      }
    },
    {
      "type": "Feature",
      "properties": {
        "aoi_id": "AOI_03",
        "bbox": [
          7.416889749417534,
          50.99662461043584,
          7.84591239024784,
          51.188045229227306
        ]
      },
      "geometry": {
        "type": "Polygon",
        "coordinates": [
          [
            [
              7.84591239024784,
              51.005167019349976
            ],
            [
              7.837375173002837,
              51.188045229227306
            ],
            [
              7.416889749417534,
              51.17946393785708
            ],
            [
              7.427083668143678,
              50.99662461043584
            ],
            [
              7.84591239024784,
              51.005167019349976
            ]
          ]
        ]
      }
    },
    {
      "type": "Feature",
      "properties": {
        "aoi_id": "AOI_04",
        "bbox": [
          7.519567537980779,
          50.09903686168948,
          7.911881316373211,
          50.31187820596097
        ]
      },
      "geometry": {
        "type": "Polygon",
        "coordinates": [
          [
            [
              7.911881316373211,
              50.10666479485807
            ],
            [
              7.902853407914273,
              50.31187820596097
            ],
            [
              7.519567537980779,
              50.30421234380697
            ],
            [
              7.53024248914686,
              50.09903686168948
            ],
            [
              7.911881316373211,
              50.10666479485807
            ]
          ]
        ]
      }
    },
    {
      "type": "Feature",
      "properties": {
        "aoi_id": "AOI_05",
        "bbox": [
          6.9112176515298165,
          49.714695736483215,
          7.269300721314937,
          49.91818530619153
        ]
      },
      "geometry": {
        "type": "Polygon",
        "coordinates": [
          [
            [
              7.269300721314937,
              49.723558607715084
            ],
            [
              7.2582392206788535,
              49.91818530619153
            ],
            [
              6.9112176515298165,
              49.90928113258777
            ],
            [
              6.923675232354671,
              49.714695736483215
            ],
            [
              7.269300721314937,
              49.723558607715084
            ]
          ]
        ]
      }
    }
  ]
}